COMMENT,ORIGINATOR,NORAD_CAT_ID,OBJECT_NAME,OBJECT_TYPE,CLASSIFICATION_TYPE,INTLDES,EPOCH,EPOCH_MICROSECONDS,MEAN_MOTION,ECCENTRICITY,INCLINATION,RA_OF_ASC_NODE,ARG_OF_PERICENTER,MEAN_ANOMALY,EPHEMERIS_TYPE,ELEMENT_SET_NO,REV_AT_EPOCH,BSTAR,MEAN_MOTION_DOT,MEAN_MOTION_DDOT,FILE,TLE_LINE0,TLE_LINE1,TLE_LINE2,OBJECT_ID,OBJECT_NUMBER,SEMIMAJOR_AXIS,PERIOD,APOGEE,PERIGEE
"GENERATED VIA SPACETRACK.ORG API","JSPOC","23405","SL-16 R/B","ROCKET BODY","U","94077B","2016-01-13 03:08:34","939680","14.15175425","0.000232","70.9818","230.9032","339.6691","20.4339","0","999","9179","0.00015824","2.6e-06","0","1979734","0 SL-16 R/B","1 23405U 94077B   16013.13095995  .00000260  00000-0  15824-3 0  9994","2 23405  70.9818 230.9032 0002320 339.6691  20.4339 14.15175425 91794","1994-077B","23405","7219.852","101.754","843.392","840.042"
"GENERATED VIA SPACETRACK.ORG API","JSPOC","24819","INMARSAT 3-F4","PAYLOAD","U","97027A","2016-01-13 03:09:00","50112","1.00275325","0.0004339","4.8465","60.7006","234.7657","169.7802","0","999","6817","0","-2.93e-06","0","1980335","0 INMARSAT 3-F4","1 24819U 97027A   16013.13125058 -.00000293  00000-0  00000+0 0  9999","2 24819   4.8465  60.7006 0004339 234.7657 169.7802  1.00275325 68175","1997-027A","24819","42163.739","1436.046","35803.899","35767.309"
"GENERATED VIA SPACETRACK.ORG API","JSPOC","33466","COSMOS 2447 (GLONASS)","PAYLOAD","U","08067A","2016-01-13 03:09:22","781952","2.13118664","0.0003036","63.9574","200.9039","245.1681","312.1264","0","999","5466","0","9.3e-07","0","1979783","0 COSMOS 2447 (GLONASS)","1 33466U 08067A   16013.13151368  .00000093  00000-0  00000+0 0  9993","2 33466  63.9574 200.9039 0003036 245.1681 312.1264  2.13118664 54662","2008-067A","33466","25506.694","675.679","19136.303","19120.815"
"GENERATED VIA SPACETRACK.ORG API","JSPOC","40948","AAUSAT 5","PAYLOAD","U","98067GZ","2016-01-13 03:09:26","485056","15.71902339","0.0008554","51.6367","110.5388","347.0343","13.0434","0","999","1556","0.00088331","0.0011879","0","1979702","0 AAUSAT 5","1 40948U 98067GZ  16013.13155654  .00118790  00000-0  88331-3 0  9998","2 40948  51.6367 110.5388 0008554 347.0343  13.0434 15.71902339 15569","1998-067GZ","40948","6731.597","91.608","359.220","347.704"
"GENERATED VIA SPACETRACK.ORG API","JSPOC","21930","NAVSTAR 25 (USA 80)","PAYLOAD","U","92019A","2016-01-13 03:09:38","155104","1.87659528","0.0031684","54.9449","76.8799","271.7566","76.1923","0","999","16998","0","-2.4e-07","0","1980270","0 NAVSTAR 25 (USA 80)","1 21930U 92019A   16013.13169161 -.00000024 +00000-0 +00000-0 0  9992","2 21930 054.9449 076.8799 0031684 271.7566 076.1923 01.87659528169986","1992-019A","21930","27764.387","767.347","21474.221","21298.283"
"GENERATED VIA SPACETRACK.ORG API","JSPOC","40950","FLOCK 2B 1","PAYLOAD","U","98067HB","2016-01-13 03:10:05","455776","15.63501563","0.0004546","51.641","112.8194","12.0442","348.066","0","999","1544","0.00054107","0.00050884","0","1979704","0 FLOCK 2B 1","1 40950U 98067HB  16013.13200759  .00050884  00000-0  54107-3 0  9991","2 40950  51.6410 112.8194 0004546  12.0442 348.0660 15.63501563 15441","1998-067HB","40950","6755.688","92.100","380.624","374.482"
"GENERATED VIA SPACETRACK.ORG API","JSPOC","7291","COSMOS 651","PAYLOAD","U","74029A","2016-01-13 03:11:06","882720","13.92906861","0.005323","64.9705","255.3928","245.9807","113.5681","0","999","12030","1.92e-05","-6.6e-07","0","1979719","0 COSMOS 651","1 07291U 74029A   16013.13271855 -.00000066  00000-0  19200-4 0  9993","2 07291  64.9705 255.3928 0053230 245.9807 113.5681 13.92906861120300","1974-029A","7291","7296.598","103.380","957.303","879.623"
"GENERATED VIA SPACETRACK.ORG API","JSPOC","26102","MTI","PAYLOAD","U","00014A","2016-01-13 03:11:12","202368","15.40047957","0.000975","97.5129","158.7006","0.6906","84.6181","0","999","87412","0.00024746","9.818e-05","0","1979680","0 MTI","1 26102U 00014A   16013.13278012  .00009818  00000-0  24746-3 0  9993","2 26102  97.5129 158.7006 0009750   0.6906  84.6181 15.40047957874127","2000-014A","26102","6824.104","93.503","452.623","439.316"
"GENERATED VIA SPACETRACK.ORG API","JSPOC","40375","ATLAS 5 CENTAUR R/B","ROCKET BODY","U","15002B","2016-01-13 03:11:12","760512","2.08928648","0.6059739","18.4815","263.4427","296.637","14.7025","0","999","746","0","1.4e-07","0","1980270","0 ATLAS 5 CENTAUR R/B","1 40375U 15002B   16013.13278658 +.00000014 +00000-0 +00000-0 0  9993","2 40375 018.4815 263.4427 6059739 296.6370 014.7025 02.08928648007461","2015-002B","40375","25846.585","689.230","35130.806","3806.094"
"GENERATED VIA SPACETRACK.ORG API","JSPOC","39417","ZACUBE","PAYLOAD","U","13066B","2016-01-13 03:11:32","294688","14.80164113","0.0060235","97.7032","72.5072","170.9342","189.2973","0","999","11568","0.00012409","9.19e-06","0","1979700","0 ZACUBE","1 39417U 13066B   16013.13301267  .00000919  00000-0  12409-3 0  9992","2 39417  97.7032  72.5072 0060235 170.9342 189.2973 14.80164113115688","2013-066B","39417","7006.943","97.286","671.014","586.601"
"GENERATED VIA SPACETRACK.ORG API","JSPOC","15259","COSMOS 1593 (GLONASS)","PAYLOAD","U","84095A","2016-01-13 03:11:40","601184","2.13105656","0.0021201","64.0774","203.7751","200.0696","35.2237","0","999","19737","0","9.3e-07","0","1979715","0 COSMOS 1593 (GLONASS)","1 15259U 84095A   16013.13310881  .00000093  00000-0  00000+0 0  9995","2 15259  64.0774 203.7751 0021201 200.0696  35.2237  2.13105656197374","1984-095A","15259","25507.732","675.721","19183.676","19075.518"
"GENERATED VIA SPACETRACK.ORG API","JSPOC","24727","COSMOS 2339","PAYLOAD","U","97006C","2016-01-13 03:11:50","991648","12.62312303","0.0001502","82.6049","156.7846","98.4198","313.2729","0","999","87140","9.2863e-05","2.7e-07","0","1979748","0 COSMOS 2339","1 24727U 97006C   16013.13322907  .00000027  00000-0  92863-4 0  9993","2 24727  82.6049 156.7846 0001502  98.4198 313.2729 12.62312303871407","1997-006C","24727","7791.551","114.076","1414.587","1412.246"
"GENERATED VIA SPACETRACK.ORG API","JSPOC","38253","CZ-3B R/B","ROCKET BODY","U","12018D","2016-01-13 03:12:36","82944","7.62292396","0.3999548","54.9831","73.7964","84.0346","319.0531","0","999","7840","0.00089666","0.00247488","4.7016","1979739","0 CZ-3B R/B","1 38253U 12018D   16013.13375096  .00247488  47016-6  89666-3 0  9993","2 38253  54.9831  73.7964 3999548  84.0346 319.0531  7.62292396 78408","2012-018D","38253","10905.714","188.903","8889.372","165.786"
"GENERATED VIA SPACETRACK.ORG API","JSPOC","12849","SL-14 R/B","ROCKET BODY","U","81094B","2016-01-13 03:12:48","706848","13.49605496","0.0905743","82.4905","206.4473","15.6237","347.0981","0","999","67163","5.2896e-05","5.95e-06","0","1979753","0 SL-14 R/B","1 12849U 81094B   16013.13389707  .00000595  00000-0  52896-4 0  9998","2 12849  82.4905 206.4473 0905743  15.6237 347.0981 13.49605496671634","1981-094B","12849","7451.847","106.697","1748.658","398.766"
"GENERATED VIA SPACETRACK.ORG API","JSPOC","28890","BEIJING 1 (TSINGHUA)","PAYLOAD","U","05043A","2016-01-13 03:12:50","794272","14.6107699","0.0015369","97.8208","189.9538","359.5362","0.5807","0","999","54433","3.1493e-05","1.11e-06","0","1979762","0 BEIJING 1 (TSINGHUA)","1 28890U 05043A   16013.13392123  .00000111  00000-0  31493-4 0  9991","2 28890  97.8208 189.9538 0015369 359.5362   0.5807 14.61076990544335","2005-043A","28890","7067.835","98.557","700.563","678.838"
"GENERATED VIA SPACETRACK.ORG API","JSPOC","13067","COSMOS 1340","PAYLOAD","U","82013A","2016-01-13 03:12:53","983296","15.17800477","0.0004761","81.1864","21.2096","114.1953","287.6747","0","999","84873","0.00010466","2.14e-05","0","1979762","0 COSMOS 1340","1 13067U 82013A   16013.13395814  .00002140  00000-0  10466-3 0  9993","2 13067  81.1864  21.2096 0004761 114.1953 287.6747 15.17800477848730","1982-013A","13067","6890.626","94.874","515.772","509.210"
"GENERATED VIA SPACETRACK.ORG API","JSPOC","24892","ARIANE 44P R/B","ROCKET BODY","U","97040B","2016-01-13 03:13:03","957312","3.42257536","0.6418029","7.3014","203.3734","135.4866","298.9649","0","999","19030","0.0021943","7.898e-05","0","1979849","0 ARIANE 44P R/B","1 24892U 97040B   16013.13407358  .00007898  00000-0  21943-2 0  9990","2 24892   7.3014 203.3734 6418029 135.4866 298.9649  3.42257536190304","1997-040B","24892","18599.438","420.735","24158.476","284.129"
"GENERATED VIA SPACETRACK.ORG API","JSPOC","19337","SL-14 R/B","ROCKET BODY","U","88064B","2016-01-13 03:13:06","87936","13.17215221","0.001632","82.5478","148.5874","43.573","42.5578","0","999","32063","0.00014086","6.7e-07","0","1979716","0 SL-14 R/B","1 19337U 88064B   16013.13409824  .00000067  00000-0  14086-3 0  9996","2 19337  82.5478 148.5874 0016320  43.5730  42.5578 13.17215221320630","1988-064B","19337","7573.512","109.321","1207.737","1183.017"
"GENERATED VIA SPACETRACK.ORG API","JSPOC","26103","TAURUS R/B","ROCKET BODY","U","00014B","2016-01-13 03:13:17","520384","15.1018509","0.0028265","97.1703","42.5564","278.807","80.996","0","999","86838","7.534e-05","1.181e-05","0","1979736","0 TAURUS R/B","1 26103U 00014B   16013.13423056  .00001181  00000-0  75340-4 0  9996","2 26103  97.1703  42.5564 0028265 278.8070  80.9960 15.10185090868387","2000-014B","26103","6913.772","95.352","555.178","516.095"
"GENERATED VIA SPACETRACK.ORG API","JSPOC","23846","MSAT M1","PAYLOAD","U","96022A","2016-01-13 03:13:28","603776","1.00271886","0.0005656","6.9315","52.9439","244.8668","115.1001","0","999","7225","0","-8.4e-07","0","1979815","0 MSAT M1","1 23846U 96022A   16013.13435884 -.00000084  00000-0  00000+0 0  9991","2 23846   6.9315  52.9439 0005656 244.8668 115.1001  1.00271886 72259","1996-022A","23846","42164.703","1436.095","35810.417","35762.720"
